[{"OBJECT_NAME":"NETSAT-1","OBJECT_ID":"2020-068W","EPOCH":"2026-03-09T22:42:38.711232","MEAN_MOTION":15.32042482,"ECCENTRICITY":0.00057337,"INCLINATION":97.8751,"RA_OF_ASC_NODE":63.2583,"ARG_OF_PERICENTER":18.5877,"MEAN_ANOMALY":341.5572,"EPHEMERIS_TYPE":0,"CLASSIFICATION_TYPE":"U","NORAD_CAT_ID":46506,"ELEMENT_SET_NO":999,"REV_AT_EPOCH":30009,"BSTAR":0.00059222329,"MEAN_MOTION_DOT":0.00018269,"MEAN_MOTION_DDOT":0},{"OBJECT_NAME":"STARLINK-35004","OBJECT_ID":"2025-192AA","EPOCH":"2026-03-09T16:58:55.830432","MEAN_MOTION":15.3019078,"ECCENTRICITY":0.0001299,"INCLINATION":53.1586,"RA_OF_ASC_NODE":232.4959,"ARG_OF_PERICENTER":99.7112,"MEAN_ANOMALY":260.4035,"EPHEMERIS_TYPE":0,"CLASSIFICATION_TYPE":"U","NORAD_CAT_ID":65428,"ELEMENT_SET_NO":999,"REV_AT_EPOCH":2938,"BSTAR":0.00045040813,"MEAN_MOTION_DOT":0.00013,"MEAN_MOTION_DDOT":0}]
